{
 "generated_at": "2026-06-21T08:57:48Z",
 "sources": [
  {
   "name": "CelesTrak",
   "url": "https://celestrak.org/NORAD/elements/",
   "license": "frei verfügbar; Attribution. Ursprünglich USSPACECOM/Space-Track."
  },
  {
   "name": "GCAT (J. McDowell, planet4589.org)",
   "url": "https://planet4589.org/space/gcat/",
   "license": "CC-BY 4.0"
  }
 ],
 "satellites": [
  {
   "norad": 43783,
   "name": "KAZSTSAT",
   "intl": "2018-099AB",
   "group": "resource",
   "gcat": {
    "class": "B",
    "category": "IMG",
    "owner": "GHALAM",
    "state": "KZ"
   },
   "omm": {
    "OBJECT_NAME": "KAZSTSAT",
    "OBJECT_ID": "2018-099AB",
    "EPOCH": "2026-06-20T00:47:25.220256",
    "MEAN_MOTION": 14.99874388,
    "ECCENTRICITY": 0.00086028,
    "INCLINATION": 97.4272,
    "RA_OF_ASC_NODE": 202.8318,
    "ARG_OF_PERICENTER": 62.2449,
    "MEAN_ANOMALY": 297.9646,
    "EPHEMERIS_TYPE": 0,
    "CLASSIFICATION_TYPE": "U",
    "NORAD_CAT_ID": 43783,
    "ELEMENT_SET_NO": 999,
    "REV_AT_EPOCH": 41173,
    "BSTAR": 0.0001194559,
    "MEAN_MOTION_DOT": 0.00001425,
    "MEAN_MOTION_DDOT": 0
   }
  },
  {
   "norad": 41167,
   "name": "KENT RIDGE 1",
   "intl": "2015-077B",
   "group": "resource",
   "gcat": {
    "class": null,
    "category": null,
    "owner": null,
    "state": null
   },
   "omm": {
    "OBJECT_NAME": "KENT RIDGE 1",
    "OBJECT_ID": "2015-077B",
    "EPOCH": "2026-06-20T13:38:52.281024",
    "MEAN_MOTION": 15.23149174,
    "ECCENTRICITY": 0.0008246,
    "INCLINATION": 14.979,
    "RA_OF_ASC_NODE": 240.8421,
    "ARG_OF_PERICENTER": 286.2551,
    "MEAN_ANOMALY": 73.6864,
    "EPHEMERIS_TYPE": 0,
    "CLASSIFICATION_TYPE": "U",
    "NORAD_CAT_ID": 41167,
    "ELEMENT_SET_NO": 999,
    "REV_AT_EPOCH": 58161,
    "BSTAR": 0.00010583,
    "MEAN_MOTION_DOT": 0.00003339,
    "MEAN_MOTION_DDOT": 0
   }
  },
  {
   "norad": 40536,
   "name": "KOMPSAT-3A",
   "intl": "2015-014A",
   "group": "resource",
   "gcat": {
    "class": "C",
    "category": "IMG",
    "owner": "KARI",
    "state": "KR"
   },
   "omm": {
    "OBJECT_NAME": "KOMPSAT-3A",
    "OBJECT_ID": "2015-014A",
    "EPOCH": "2026-06-21T05:36:58.150368",
    "MEAN_MOTION": 15.54157822,
    "ECCENTRICITY": 0.0056908,
    "INCLINATION": 97.6889,
    "RA_OF_ASC_NODE": 163.8924,
    "ARG_OF_PERICENTER": 159.9178,
    "MEAN_ANOMALY": 200.4333,
    "EPHEMERIS_TYPE": 0,
    "CLASSIFICATION_TYPE": "U",
    "NORAD_CAT_ID": 40536,
    "ELEMENT_SET_NO": 999,
    "REV_AT_EPOCH": 62244,
    "BSTAR": 0.00029424,
    "MEAN_MOTION_DOT": 0.00020451,
    "MEAN_MOTION_DDOT": 0
   }
  },
  {
   "norad": 39084,
   "name": "LANDSAT 8",
   "intl": "2013-008A",
   "group": "resource",
   "gcat": {
    "class": "C",
    "category": "IMG",
    "owner": "USGS",
    "state": "US"
   },
   "omm": {
    "OBJECT_NAME": "LANDSAT 8",
    "OBJECT_ID": "2013-008A",
    "EPOCH": "2026-06-20T10:59:52.642752",
    "MEAN_MOTION": 14.57096364,
    "ECCENTRICITY": 0.0001358,
    "INCLINATION": 98.2301,
    "RA_OF_ASC_NODE": 241.5547,
    "ARG_OF_PERICENTER": 93.7192,
    "MEAN_ANOMALY": 266.4162,
    "EPHEMERIS_TYPE": 0,
    "CLASSIFICATION_TYPE": "U",
    "NORAD_CAT_ID": 39084,
    "ELEMENT_SET_NO": 999,
    "REV_AT_EPOCH": 69837,
    "BSTAR": 0.000061084,
    "MEAN_MOTION_DOT": 0.0000023,
    "MEAN_MOTION_DDOT": 0
   }
  },
  {
   "norad": 49260,
   "name": "LANDSAT 9",
   "intl": "2021-088A",
   "group": "resource",
   "gcat": {
    "class": "C",
    "category": "IMG",
    "owner": "USGS/GSFC",
    "state": "US"
   },
   "omm": {
    "OBJECT_NAME": "LANDSAT 9",
    "OBJECT_ID": "2021-088A",
    "EPOCH": "2026-06-20T10:10:35.291712",
    "MEAN_MOTION": 14.57098947,
    "ECCENTRICITY": 0.0001329,
    "INCLINATION": 98.228,
    "RA_OF_ASC_NODE": 241.5622,
    "ARG_OF_PERICENTER": 85.1905,
    "MEAN_ANOMALY": 274.9445,
    "EPHEMERIS_TYPE": 0,
    "CLASSIFICATION_TYPE": "U",
    "NORAD_CAT_ID": 49260,
    "ELEMENT_SET_NO": 999,
    "REV_AT_EPOCH": 25147,
    "BSTAR": 0.000062312,
    "MEAN_MOTION_DOT": 0.00000235,
    "MEAN_MOTION_DDOT": 0
   }
  },
  {
   "norad": 41603,
   "name": "LAPAN-A3",
   "intl": "2016-040E",
   "group": "resource",
   "gcat": {
    "class": "C",
    "category": "IMG",
    "owner": "LAPAN",
    "state": "ID"
   },
   "omm": {
    "OBJECT_NAME": "LAPAN-A3",
    "OBJECT_ID": "2016-040E",
    "EPOCH": "2026-06-21T05:42:29.047680",
    "MEAN_MOTION": 15.33126076,
    "ECCENTRICITY": 0.0010389,
    "INCLINATION": 97.1492,
    "RA_OF_ASC_NODE": 168.2503,
    "ARG_OF_PERICENTER": 12.1031,
    "MEAN_ANOMALY": 348.046,
    "EPHEMERIS_TYPE": 0,
    "CLASSIFICATION_TYPE": "U",
    "NORAD_CAT_ID": 41603,
    "ELEMENT_SET_NO": 999,
    "REV_AT_EPOCH": 55543,
    "BSTAR": 0.000083573,
    "MEAN_MOTION_DOT": 0.00002603,
    "MEAN_MOTION_DDOT": 0
   }
  },
  {
   "norad": 29709,
   "name": "LAPAN-TUBSAT",
   "intl": "2007-001A",
   "group": "resource",
   "gcat": {
    "class": null,
    "category": null,
    "owner": null,
    "state": null
   },
   "omm": {
    "OBJECT_NAME": "LAPAN-TUBSAT",
    "OBJECT_ID": "2007-001A",
    "EPOCH": "2026-06-21T05:27:18.050400",
    "MEAN_MOTION": 14.85954535,
    "ECCENTRICITY": 0.0012277,
    "INCLINATION": 98.1345,
    "RA_OF_ASC_NODE": 171.5427,
    "ARG_OF_PERICENTER": 166.0462,
    "MEAN_ANOMALY": 194.1094,
    "EPHEMERIS_TYPE": 0,
    "CLASSIFICATION_TYPE": "U",
    "NORAD_CAT_ID": 29709,
    "ELEMENT_SET_NO": 999,
    "REV_AT_EPOCH": 5175,
    "BSTAR": 0.000088013,
    "MEAN_MOTION_DOT": 0.00000711,
    "MEAN_MOTION_DDOT": 0
   }
  },
  {
   "norad": 59625,
   "name": "LEGION 1",
   "intl": "2024-081A",
   "group": "resource",
   "gcat": {
    "class": "B",
    "category": "IMG",
    "owner": "MAXARI",
    "state": "US"
   },
   "omm": {
    "OBJECT_NAME": "LEGION 1",
    "OBJECT_ID": "2024-081A",
    "EPOCH": "2026-06-20T11:02:07.145088",
    "MEAN_MOTION": 15.16685063,
    "ECCENTRICITY": 0.0009187,
    "INCLINATION": 97.5015,
    "RA_OF_ASC_NODE": 249.282,
    "ARG_OF_PERICENTER": 6.7145,
    "MEAN_ANOMALY": 353.421,
    "EPHEMERIS_TYPE": 0,
    "CLASSIFICATION_TYPE": "U",
    "NORAD_CAT_ID": 59625,
    "ELEMENT_SET_NO": 999,
    "REV_AT_EPOCH": 11803,
    "BSTAR": 0.0001373,
    "MEAN_MOTION_DOT": 0.00002623,
    "MEAN_MOTION_DDOT": 0
   }
  },
  {
   "norad": 59626,
   "name": "LEGION 2",
   "intl": "2024-081B",
   "group": "resource",
   "gcat": {
    "class": "B",
    "category": "IMG",
    "owner": "MAXARI",
    "state": "US"
   },
   "omm": {
    "OBJECT_NAME": "LEGION 2",
    "OBJECT_ID": "2024-081B",
    "EPOCH": "2026-06-20T11:45:21.355200",
    "MEAN_MOTION": 15.1666367,
    "ECCENTRICITY": 0.0010476,
    "INCLINATION": 97.5015,
    "RA_OF_ASC_NODE": 249.4091,
    "ARG_OF_PERICENTER": 331.4775,
    "MEAN_ANOMALY": 28.5884,
    "EPHEMERIS_TYPE": 0,
    "CLASSIFICATION_TYPE": "U",
    "NORAD_CAT_ID": 59626,
    "ELEMENT_SET_NO": 999,
    "REV_AT_EPOCH": 11804,
    "BSTAR": 0.00014962,
    "MEAN_MOTION_DOT": 0.00002864,
    "MEAN_MOTION_DDOT": 0
   }
  },
  {
   "norad": 60452,
   "name": "LEGION 3",
   "intl": "2024-146A",
   "group": "resource",
   "gcat": {
    "class": "B",
    "category": "IMG",
    "owner": "MAXARI",
    "state": "US"
   },
   "omm": {
    "OBJECT_NAME": "LEGION 3",
    "OBJECT_ID": "2024-146A",
    "EPOCH": "2026-06-20T10:12:48.178368",
    "MEAN_MOTION": 15.16059013,
    "ECCENTRICITY": 0.0008055,
    "INCLINATION": 45.0028,
    "RA_OF_ASC_NODE": 13.1867,
    "ARG_OF_PERICENTER": 188.7532,
    "MEAN_ANOMALY": 171.3207,
    "EPHEMERIS_TYPE": 0,
    "CLASSIFICATION_TYPE": "U",
    "NORAD_CAT_ID": 60452,
    "ELEMENT_SET_NO": 999,
    "REV_AT_EPOCH": 10251,
    "BSTAR": 0.00019408,
    "MEAN_MOTION_DOT": 0.00003536,
    "MEAN_MOTION_DDOT": 0
   }
  }
 ]
}
